[{"OBJECT_NAME":"STARLINK-33623","OBJECT_ID":"2025-035W","EPOCH":"2025-07-29T01:14:30.422400","MEAN_MOTION":15.2758145,"ECCENTRICITY":0.0001522,"INCLINATION":43.0021,"RA_OF_ASC_NODE":330.3775,"ARG_OF_PERICENTER":285.7265,"MEAN_ANOMALY":74.3419,"EPHEMERIS_TYPE":0,"CLASSIFICATION_TYPE":"U","NORAD_CAT_ID":63072,"ELEMENT_SET_NO":999,"REV_AT_EPOCH":2552,"BSTAR":0.00084282,"MEAN_MOTION_DOT":0.00023004,"MEAN_MOTION_DDOT":0},{"OBJECT_NAME":"STARLINK-33586","OBJECT_ID":"2025-035X","EPOCH":"2025-07-29T00:24:04.851648","MEAN_MOTION":15.27588311,"ECCENTRICITY":0.000171,"INCLINATION":42.9978,"RA_OF_ASC_NODE":323.1795,"ARG_OF_PERICENTER":266.57,"MEAN_ANOMALY":93.4956,"EPHEMERIS_TYPE":0,"CLASSIFICATION_TYPE":"U","NORAD_CAT_ID":63073,"ELEMENT_SET_NO":999,"REV_AT_EPOCH":2560,"BSTAR":0.00083511,"MEAN_MOTION_DOT":0.00022795,"MEAN_MOTION_DDOT":0},{"OBJECT_NAME":"STARLINK-33605","OBJECT_ID":"2025-035Y","EPOCH":"2025-07-28T08:39:16.513056","MEAN_MOTION":15.27595506,"ECCENTRICITY":0.0003183,"INCLINATION":43.0005,"RA_OF_ASC_NODE":333.7779,"ARG_OF_PERICENTER":286.22,"MEAN_ANOMALY":73.8302,"EPHEMERIS_TYPE":0,"CLASSIFICATION_TYPE":"U","NORAD_CAT_ID":63074,"ELEMENT_SET_NO":999,"REV_AT_EPOCH":2541,"BSTAR":0.0010931,"MEAN_MOTION_DOT":0.00029957,"MEAN_MOTION_DDOT":0},{"OBJECT_NAME":"STARLINK-32839","OBJECT_ID":"2025-037A","EPOCH":"2025-07-29T04:51:30.878208","MEAN_MOTION":14.98338389,"ECCENTRICITY":0.0004458,"INCLINATION":70.0012,"RA_OF_ASC_NODE":198.0332,"ARG_OF_PERICENTER":261.7659,"MEAN_ANOMALY":98.2994,"EPHEMERIS_TYPE":0,"CLASSIFICATION_TYPE":"U","NORAD_CAT_ID":63077,"ELEMENT_SET_NO":999,"REV_AT_EPOCH":2507,"BSTAR":0.00022133,"MEAN_MOTION_DOT":2.55e-5,"MEAN_MOTION_DDOT":0},{"OBJECT_NAME":"STARLINK-32821","OBJECT_ID":"2025-037B","EPOCH":"2025-07-29T04:51:16.651584","MEAN_MOTION":14.98340204,"ECCENTRICITY":0.000385,"INCLINATION":70.0012,"RA_OF_ASC_NODE":198.0278,"ARG_OF_PERICENTER":262.959,"MEAN_ANOMALY":97.1131,"EPHEMERIS_TYPE":0,"CLASSIFICATION_TYPE":"U","NORAD_CAT_ID":63078,"ELEMENT_SET_NO":999,"REV_AT_EPOCH":2495,"BSTAR":0.00027833,"MEAN_MOTION_DOT":3.23e-5,"MEAN_MOTION_DDOT":0},{"OBJECT_NAME":"STARLINK-32817","OBJECT_ID":"2025-037C","EPOCH":"2025-07-29T05:45:22.134528","MEAN_MOTION":14.98330768,"ECCENTRICITY":0.000434,"INCLINATION":70.0017,"RA_OF_ASC_NODE":197.7558,"ARG_OF_PERICENTER":262.2963,"MEAN_ANOMALY":97.7703,"EPHEMERIS_TYPE":0,"CLASSIFICATION_TYPE":"U","NORAD_CAT_ID":63079,"ELEMENT_SET_NO":999,"REV_AT_EPOCH":2502,"BSTAR":0.00082256,"MEAN_MOTION_DOT":9.736e-5,"MEAN_MOTION_DDOT":0},{"OBJECT_NAME":"STARLINK-32906","OBJECT_ID":"2025-037D","EPOCH":"2025-07-28T08:25:48.723168","MEAN_MOTION":14.98331427,"ECCENTRICITY":0.0004242,"INCLINATION":70.0014,"RA_OF_ASC_NODE":200.2727,"ARG_OF_PERICENTER":258.6295,"MEAN_ANOMALY":101.4387,"EPHEMERIS_TYPE":0,"CLASSIFICATION_TYPE":"U","NORAD_CAT_ID":63080,"ELEMENT_SET_NO":999,"REV_AT_EPOCH":2499,"BSTAR":2.8391e-5,"MEAN_MOTION_DOT":2.46e-6,"MEAN_MOTION_DDOT":0},{"OBJECT_NAME":"STARLINK-32895","OBJECT_ID":"2025-037E","EPOCH":"2025-07-29T05:09:18.789120","MEAN_MOTION":14.98335456,"ECCENTRICITY":0.0003322,"INCLINATION":70.0013,"RA_OF_ASC_NODE":198.0739,"ARG_OF_PERICENTER":264.9069,"MEAN_ANOMALY":95.1711,"EPHEMERIS_TYPE":0,"CLASSIFICATION_TYPE":"U","NORAD_CAT_ID":63081,"ELEMENT_SET_NO":999,"REV_AT_EPOCH":2497,"BSTAR":0.00020247,"MEAN_MOTION_DOT":2.324e-5,"MEAN_MOTION_DDOT":0},{"OBJECT_NAME":"STARLINK-32933","OBJECT_ID":"2025-037F","EPOCH":"2025-07-28T09:19:54.142176","MEAN_MOTION":14.98329137,"ECCENTRICITY":0.0004138,"INCLINATION":70.0011,"RA_OF_ASC_NODE":200.0005,"ARG_OF_PERICENTER":266.6054,"MEAN_ANOMALY":93.4632,"EPHEMERIS_TYPE":0,"CLASSIFICATION_TYPE":"U","NORAD_CAT_ID":63082,"ELEMENT_SET_NO":999,"REV_AT_EPOCH":2494,"BSTAR":0.00034939,"MEAN_MOTION_DOT":4.078e-5,"MEAN_MOTION_DDOT":0},{"OBJECT_NAME":"STARLINK-32932","OBJECT_ID":"2025-037G","EPOCH":"2025-07-29T04:39:15.623712","MEAN_MOTION":14.98334021,"ECCENTRICITY":0.0004045,"INCLINATION":70.0011,"RA_OF_ASC_NODE":198.0023,"ARG_OF_PERICENTER":263.6834,"MEAN_ANOMALY":96.3864,"EPHEMERIS_TYPE":0,"CLASSIFICATION_TYPE":"U","NORAD_CAT_ID":63083,"ELEMENT_SET_NO":999,"REV_AT_EPOCH":2492,"BSTAR":0.00029664,"MEAN_MOTION_DOT":3.449e-5,"MEAN_MOTION_DDOT":0},{"OBJECT_NAME":"STARLINK-32908","OBJECT_ID":"2025-037H","EPOCH":"2025-07-28T09:13:38.119008","MEAN_MOTION":14.98336707,"ECCENTRICITY":0.0003639,"INCLINATION":70.0012,"RA_OF_ASC_NODE":199.9885,"ARG_OF_PERICENTER":262.6381,"MEAN_ANOMALY":97.4364,"EPHEMERIS_TYPE":0,"CLASSIFICATION_TYPE":"U","NORAD_CAT_ID":63084,"ELEMENT_SET_NO":999,"REV_AT_EPOCH":2486,"BSTAR":0.0003427,"MEAN_MOTION_DOT":3.999e-5,"MEAN_MOTION_DDOT":0},{"OBJECT_NAME":"STARLINK-32505","OBJECT_ID":"2025-037J","EPOCH":"2025-07-29T05:09:32.840352","MEAN_MOTION":14.983376,"ECCENTRICITY":0.0004066,"INCLINATION":70.0014,"RA_OF_ASC_NODE":198.0727,"ARG_OF_PERICENTER":261.9049,"MEAN_ANOMALY":98.1649,"EPHEMERIS_TYPE":0,"CLASSIFICATION_TYPE":"U","NORAD_CAT_ID":63085,"ELEMENT_SET_NO":999,"REV_AT_EPOCH":2507,"BSTAR":0.00023021,"MEAN_MOTION_DOT":2.655e-5,"MEAN_MOTION_DDOT":0},{"OBJECT_NAME":"STARLINK-32914","OBJECT_ID":"2025-037K","EPOCH":"2025-07-28T09:19:39.823104","MEAN_MOTION":14.98325599,"ECCENTRICITY":0.0004406,"INCLINATION":70.0011,"RA_OF_ASC_NODE":200.0002,"ARG_OF_PERICENTER":265.0753,"MEAN_ANOMALY":94.9903,"EPHEMERIS_TYPE":0,"CLASSIFICATION_TYPE":"U","NORAD_CAT_ID":63086,"ELEMENT_SET_NO":999,"REV_AT_EPOCH":2500,"BSTAR":0.00034921,"MEAN_MOTION_DOT":4.076e-5,"MEAN_MOTION_DDOT":0},{"OBJECT_NAME":"STARLINK-32918","OBJECT_ID":"2025-037L","EPOCH":"2025-07-29T04:57:17.450208","MEAN_MOTION":14.98336825,"ECCENTRICITY":0.0003788,"INCLINATION":70.0013,"RA_OF_ASC_NODE":198.043,"ARG_OF_PERICENTER":263.4488,"MEAN_ANOMALY":96.624,"EPHEMERIS_TYPE":0,"CLASSIFICATION_TYPE":"U","NORAD_CAT_ID":63087,"ELEMENT_SET_NO":999,"REV_AT_EPOCH":2512,"BSTAR":0.00027979,"MEAN_MOTION_DOT":3.248e-5,"MEAN_MOTION_DDOT":0},{"OBJECT_NAME":"STARLINK-32912","OBJECT_ID":"2025-037M","EPOCH":"2025-07-28T16:38:28.229856","MEAN_MOTION":14.98322692,"ECCENTRICITY":0.0004261,"INCLINATION":70.0014,"RA_OF_ASC_NODE":199.0636,"ARG_OF_PERICENTER":261.8453,"MEAN_ANOMALY":98.2223,"EPHEMERIS_TYPE":0,"CLASSIFICATION_TYPE":"U","NORAD_CAT_ID":63088,"ELEMENT_SET_NO":999,"REV_AT_EPOCH":2505,"BSTAR":0.00033349,"MEAN_MOTION_DOT":3.888e-5,"MEAN_MOTION_DDOT":0},{"OBJECT_NAME":"STARLINK-32910","OBJECT_ID":"2025-037N","EPOCH":"2025-07-29T04:39:29.960928","MEAN_MOTION":14.98346006,"ECCENTRICITY":0.0003603,"INCLINATION":70.0012,"RA_OF_ASC_NODE":197.9966,"ARG_OF_PERICENTER":270.0608,"MEAN_ANOMALY":90.0138,"EPHEMERIS_TYPE":0,"CLASSIFICATION_TYPE":"U","NORAD_CAT_ID":63089,"ELEMENT_SET_NO":999,"REV_AT_EPOCH":2512,"BSTAR":0.00017208,"MEAN_MOTION_DOT":1.962e-5,"MEAN_MOTION_DDOT":0},{"OBJECT_NAME":"STARLINK-32903","OBJECT_ID":"2025-037P","EPOCH":"2025-07-29T05:21:18.661824","MEAN_MOTION":14.98352516,"ECCENTRICITY":0.0003793,"INCLINATION":70.0013,"RA_OF_ASC_NODE":197.7047,"ARG_OF_PERICENTER":265.415,"MEAN_ANOMALY":94.6576,"EPHEMERIS_TYPE":0,"CLASSIFICATION_TYPE":"U","NORAD_CAT_ID":63090,"ELEMENT_SET_NO":999,"REV_AT_EPOCH":2477,"BSTAR":0.00041778,"MEAN_MOTION_DOT":4.898e-5,"MEAN_MOTION_DDOT":0}]
