STARLINK-33623          
1 63072U 25035W   25210.05174100  .00023004  00000+0  84282-3 0  9996
2 63072  43.0021 330.3775 0001522 285.7265  74.3419 15.27581450 25523
STARLINK-33586          
1 63073U 25035X   25210.01672282  .00022795  00000+0  83511-3 0  9997
2 63073  42.9978 323.1795 0001710 266.5700  93.4956 15.27588311 25605
STARLINK-33605          
1 63074U 25035Y   25209.36060779  .00029957  00000+0  10931-2 0  9998
2 63074  43.0005 333.7779 0003183 286.2200  73.8302 15.27595506 25418
STARLINK-32839          
1 63077U 25037A   25210.20244072  .00002550  00000+0  22133-3 0  9996
2 63077  70.0012 198.0332 0004458 261.7659  98.2994 14.98338389 25079
STARLINK-32821          
1 63078U 25037B   25210.20227606  .00003230  00000+0  27833-3 0  9999
2 63078  70.0012 198.0278 0003850 262.9590  97.1131 14.98340204 24957
STARLINK-32817          
1 63079U 25037C   25210.23983952  .00009736  00000+0  82256-3 0  9993
2 63079  70.0017 197.7558 0004340 262.2963  97.7703 14.98330768 25026
STARLINK-32906          
1 63080U 25037D   25209.35125837  .00000246  00000+0  28391-4 0  9994
2 63080  70.0014 200.2727 0004242 258.6295 101.4387 14.98331427 24990
STARLINK-32895          
1 63081U 25037E   25210.21480080  .00002324  00000+0  20247-3 0  9996
2 63081  70.0013 198.0739 0003322 264.9069  95.1711 14.98335456 24978
STARLINK-32933          
1 63082U 25037F   25209.38882109  .00004078  00000+0  34939-3 0  9992
2 63082  70.0011 200.0005 0004138 266.6054  93.4632 14.98329137 24945
STARLINK-32932          
1 63083U 25037G   25210.19393083  .00003449  00000+0  29664-3 0  9992
2 63083  70.0011 198.0023 0004045 263.6834  96.3864 14.98334021 24927
STARLINK-32908          
1 63084U 25037H   25209.38446897  .00003999  00000+0  34270-3 0  9993
2 63084  70.0012 199.9885 0003639 262.6381  97.4364 14.98336707 24862
STARLINK-32505          
1 63085U 25037J   25210.21496343  .00002655  00000+0  23021-3 0  9999
2 63085  70.0014 198.0727 0004066 261.9049  98.1649 14.98337600 25079
STARLINK-32914          
1 63086U 25037K   25209.38865536  .00004076  00000+0  34921-3 0  9990
2 63086  70.0011 200.0002 0004406 265.0753  94.9903 14.98325599 25006
STARLINK-32918          
1 63087U 25037L   25210.20645197  .00003248  00000+0  27979-3 0  9998
2 63087  70.0013 198.0430 0003788 263.4488  96.6240 14.98336825 25129
STARLINK-32912          
1 63088U 25037M   25209.69338229  .00003888  00000+0  33349-3 0  9993
2 63088  70.0014 199.0636 0004261 261.8453  98.2223 14.98322692 25059
STARLINK-32910          
1 63089U 25037N   25210.19409677  .00001962  00000+0  17208-3 0  9994
2 63089  70.0012 197.9966 0003603 270.0608  90.0138 14.98346006 25122
STARLINK-32903          
1 63090U 25037P   25210.22313266  .00004898  00000+0  41778-3 0  9998
2 63090  70.0013 197.7047 0003793 265.4150  94.6576 14.98352516 24772
